#aV2021  4  6  0  0  0.00000000     288 DD+AD WGS84 FIT  NGA
## 2152 172800.00000000   300.00000000 59310 0.0000000000000
+   32     1  2  3  4  5  6  7  8  9 10 11 12 13 14 15 16 17
+         18 19 20 21 22 23 24 25 26 27 28 29 30 31 32  0  0
+          0  0  0  0  0  0  0  0  0  0  0  0  0  0  0  0  0
+          0  0  0  0  0  0  0  0  0  0  0  0  0  0  0  0  0
+          0  0  0  0  0  0  0  0  0  0  0  0  0  0  0  0  0
++         2  2  2  2  2  2  2  2  2  2  2  2  2  2  2  2  2
++         2  2  2  2  2  2  2  2  2  2  2  2  2  2  2  0  0
++         0  0  0  0  0  0  0  0  0  0  0  0  0  0  0  0  0
++         0  0  0  0  0  0  0  0  0  0  0  0  0  0  0  0  0
++         0  0  0  0  0  0  0  0  0  0  0  0  0  0  0  0  0
%c cc cc ccc ccc cccc cccc cccc cccc ccccc ccccc ccccc ccccc
%c cc cc ccc ccc cccc cccc cccc cccc ccccc ccccc ccccc ccccc
%f  0.0000000  0.000000000  0.00000000000  0.000000000000000
%f  0.0000000  0.000000000  0.00000000000  0.000000000000000
%i    0    0    0    0      0      0      0      0         0
%i    0    0    0    0      0      0      0      0         0
/*      NGA, ST. LOUIS,MO.                                  
/*   EPHEMERIS COMPUTED FROM 2 DAYS OF DATA                 
/*   EPOCHA v5 SMOOTHER                                     
/*   G2139 IERS2010 SATIGS SATAPC                           
*  2021  4  6 12 20  0.00000000
P  1 -21772.591964 -14611.895332  -5525.090654    723.228133                    
V  1   6689.925581   1349.773649 -31022.851289     -0.096042                    
P  2   1497.036248  16530.068262  21385.041532   -593.161945                    
V  2 -24180.112644  -8599.130224   8650.084592     -0.035084                    
P  3 -12654.107701 -16651.598083  16356.381978   -129.143644                    
V  3    -48.689272 -20924.128254 -21128.252700     -0.107431                    
P  4 -14886.829772  -7593.425613  20664.218062   -190.378443                    
V  4  21564.112935 -14920.985604  10000.710573     -0.020237                    
P  5   4551.437719  25997.373478  -2053.818928    -38.307743                    
V  5  -2819.032742   2794.551260  31611.456478     -0.010809                    
P  6 -11834.545268  10253.779543  21525.690844      5.314839                    
V  6 -24303.416359 -12017.692705  -7601.415684      0.025999                    
P  7 -24905.324326  -6080.483370  -7509.593424    113.644429                    
V  7  -7778.140136  -6613.507337  29300.547006      0.117903                    
P  8  -7291.556142 -13255.236190 -21818.442307    -16.497995                    
V  8  22674.793380 -15899.406365   2379.992554     -0.013877                    
P  9 -21754.818356   2525.483847  14985.994169   -336.893672                    
V  9  14263.398628 -12954.980248  22772.809268     -0.028434                    
P 10  12099.578974 -13505.253840 -19197.179160    -96.398649                    
V 10   3480.416555  24484.892707 -15200.323578     -0.077906                    
P 11 -19882.804884 -10273.934967 -14475.081371     21.984565                    
V 11  17750.892084  -4026.562731 -22585.496191      0.106106                    
P 12   9835.677818  20114.747159  14150.804038    -24.137643                    
V 12  -1608.618837  18335.661214 -24361.310795     -0.050751                    
P 13  -3252.591288  17194.669028 -20074.619803    116.645750                    
V 13 -22916.298717  10570.313386  12977.283188      0.045607                    
P 14 -13255.308120  12288.946489 -19466.603685     97.766346                    
V 14  -2226.264827 -24644.181464 -14068.155218     -0.020567                    
P 15   9550.271284  12961.775842 -21468.250382   -158.044311                    
V 15 -20205.931753  17264.447552   1816.619077      0.025995                    
P 16    604.023321 -26284.942306    583.410847   -305.459630                    
V 16   2794.306548   1066.873697  32344.298473     -0.058847                    
P 17 -22472.623088  14152.327309    646.506299    421.977868                    
V 17  -1358.563101  -1656.535944 -32221.482026      0.060793                    
P 18  23784.825934   3017.163596 -11501.908211    351.561246                    
V 18  12059.344154   8446.326397  27108.792681      0.002055                    
P 19 -18958.637658  16531.513170   8077.684938    -16.534693                    
V 19 -10386.877018   3218.237457 -30011.464314      0.050053                    
P 20  16387.347277   8827.803101 -19044.159543    523.455504                    
V 20   3972.222338  23876.562188  14215.260829     -0.003888                    
P 21 -17818.297926 -15681.019520 -11658.346516    108.930106                    
V 21  15555.934133   3487.940518 -26364.742407      0.029031                    
P 22 -10569.602017 -23016.789911   8494.406056   -644.119809                    
V 22   1248.061383 -10909.177677 -28490.621801      0.085859                    
P 23  15102.482940  -1433.502505 -21820.901293    114.870974                    
V 23   2985.928570  27490.873024    217.380419     -0.017763                    
P 24  18977.720818  15774.071160 -10571.159846      0.119256                    
V 24 -13107.822840  -2123.230947 -26942.971621     -0.004824                    
P 25  15016.319389   6816.405806  20614.289608    113.333970                    
V 25   1472.582899  26685.560003  -9503.523431      0.073312                    
P 26   4941.572514 -23595.567260  10788.834760     68.426897                    
V 26   4870.998806  13409.420829  27219.892779      0.052223                    
P 27   5171.167822 -18591.556389 -18249.448467   -107.774655                    
V 27  19679.513264 -11858.945819  18183.846276     -0.069256                    
P 28 -12306.814678  14803.719560 -17827.621981    590.925314                    
V 28  -1161.733043 -23682.432579 -18114.751742     -0.058428                    
P 29  22039.694373  -1666.191546  14713.009159   -325.186098                    
V 29 -15326.215520  10823.751276  24066.728301     -0.067145                    
P 30 -19273.788420   4819.991896 -17682.974257   -409.038157                    
V 30 -19277.210866 -11847.604673  17498.754543     -0.053291                    
P 31   9747.487438 -12080.168173  21506.637893   -109.990385                    
V 31  24473.051193  12493.728591  -3603.050927     -0.022517                    
P 32  20911.821970 -16146.731756   1672.669499     22.025675                    
V 32   3404.114642   1349.643141 -31699.029672      0.001858                    
EOF
